MESON-1                 
1 59131U 24043AK  26068.90019075  .00008544  00000+0  29748-3 0  9998
2 59131  97.5469 205.2839 0009545 227.1432 132.9007 15.29893494111890
STARLINK-31857          
1 59843U 24097J   26067.98815413 -.00000913  00000+0 -23673-4 0  9990
2 59843  43.0010 277.9601 0001485 256.6613 103.4073 15.27571569101815
